{"fetched_at":"2026-03-29T16:36:15Z","count":15609,"tles":[{"name":"STARLINK-11496 [DTC]","line1":"1 62267U 24237A   26087.86107786  .00219289  00000+0  16538-2 0  9992","line2":"2 62267  42.9974 301.3923 0002857 237.1866 122.8726 15.71038536 76062","category":"Starlink"}]}